0 RAPIDEYE 4
1 33316U 08040E   13282.19586247  .00000375  00000-0  56564-4 0  6303
2 33316 097.8936 008.2587 0010634 303.4911 056.5285 14.79936548276096
0 RAPIDEYE 4
1 33316U 08040E   13282.53392046  .00000371  00000-0  55998-4 0  6310
2 33316 097.8936 008.5909 0010617 302.4269 057.5917 14.79936805276148
0 RAPIDEYE 4
1 33316U 08040E   13282.80436665  .00000383  00000-0  57616-4 0  6329
2 33316 097.8936 008.8567 0010599 301.5475 058.4704 14.79937153276184
0 RAPIDEYE 4
1 33316U 08040E   13283.21003569  .00000391  00000-0  58638-4 0  6333
2 33316 097.8934 009.2555 0010591 300.0239 059.9927 14.79937649276248
0 RAPIDEYE 4
1 33316U 08040E   13283.34525868  .00000403  00000-0  60197-4 0  6346
2 33316 097.8934 009.3884 0010604 299.5699 060.4473 14.79937932276261
0 RAPIDEYE 4
1 33316U 08040E   13283.68331570  .00000413  00000-0  61547-4 0  6349
2 33316 097.8934 009.7209 0010544 298.1728 061.8428 14.79938407276316
0 RAPIDEYE 4
1 33316U 08040E   13283.81853855  .00000420  00000-0  62398-4 0  6353
2 33316 097.8935 009.8539 0010548 297.8868 062.1271 14.79938564276335
0 RAPIDEYE 4
1 33316U 08040E   13284.15659581  .00000429  00000-0  63635-4 0  6366
2 33316 097.8935 010.1862 0010519 296.4810 063.5328 14.79939033276384
0 RAPIDEYE 4
1 33316U 08040E   13284.49465284  .00000446  00000-0  65903-4 0  6378
2 33316 097.8937 010.5188 0010480 295.2124 064.8011 14.79939580276439
0 RAPIDEYE 4
1 33316U 08040E   13285.50882376  .00000462  00000-0  67958-4 0  6400
2 33316 097.8937 011.5156 0010457 291.3168 068.6929 14.79940804276581
0 RAPIDEYE 4
1 33316U 08040E   13285.84688062  .00000499  00000-0  72872-4 0  6415
2 33316 097.8939 011.8482 0010423 290.3016 069.7084 14.79941482276635
0 RAPIDEYE 4
1 33316U 08040E   13286.18493759  .00000495  00000-0  72341-4 0  6428
2 33316 097.8937 012.1802 0010416 289.1235 070.8855 14.79941789276688
0 RAPIDEYE 4
1 33316U 08040E   13286.52299425  .00000501  00000-0  73125-4 0  6430
2 33316 097.8937 012.5125 0010421 287.9454 072.0626 14.79942226276738
0 RAPIDEYE 4
1 33316U 08040E   13286.79343940  .00000522  00000-0  75877-4 0  6441
2 33316 097.8939 012.7785 0010388 287.2062 072.8012 14.79942718276771
0 RAPIDEYE 4
1 33316U 08040E   13287.19910739  .00000554  00000-0  80145-4 0  6452
2 33316 097.8937 013.1771 0010413 285.5668 074.4422 14.79943493276832
0 RAPIDEYE 4
1 33316U 08040E   13287.46955196  .00000568  00000-0  82083-4 0  6467
2 33316 097.8936 013.4429 0010416 284.6866 075.3195 14.79943961276878
0 RAPIDEYE 4
1 33316U 08040E   13287.80760821  .00000581  00000-0  83738-4 0  6478
2 33316 097.8936 013.7750 0010411 283.7286 076.2766 14.79944487276923
0 RAPIDEYE 4
1 33316U 08040E   13288.14566445  .00000598  00000-0  85957-4 0  6486
2 33316 097.8934 014.1074 0010419 282.4875 077.5183 14.79945080276975
0 RAPIDEYE 4
1 33316U 08040E   13288.48371998  .00000614  00000-0  88142-4 0  6499
2 33316 097.8933 014.4401 0010404 281.0082 078.9966 14.79945723277025
0 RAPIDEYE 4
1 33316U 08040E   13288.82177579  .00000629  00000-0  90025-4 0  6507
2 33316 097.8934 014.7723 0010394 279.9990 080.0049 14.79946295277074
0 RAPIDEYE 4
1 33316U 08040E   13289.15983164  .00000622  00000-0  89189-4 0  6512
2 33316 097.8933 015.1047 0010395 278.5635 081.4403 14.79946711277127
0 RAPIDEYE 4
1 33316U 08040E   13289.49788721  .00000626  00000-0  89740-4 0  6529
2 33316 097.8935 015.4371 0010374 277.2259 082.7779 14.79947239277178
0 RAPIDEYE 4
1 33316U 08040E   13289.83594275  .00000621  00000-0  88966-4 0  6531
2 33316 097.8936 015.7695 0010364 275.9578 084.0445 14.79947609277221
0 RAPIDEYE 4
1 33316U 08040E   13290.17399860  .00000610  00000-0  87540-4 0  6549
2 33316 097.8936 016.1021 0010351 274.5824 085.4210 14.79947975277270
0 RAPIDEYE 4
1 33316U 08040E   13290.30922072  .00000605  00000-0  86929-4 0  6556
2 33316 097.8936 016.2350 0010348 274.1243 085.8784 14.79948115277292
0 RAPIDEYE 4
1 33316U 08040E   13290.64727622  .00000608  00000-0  87343-4 0  6562
2 33316 097.8937 016.5674 0010319 272.8308 087.1731 14.79948622277346
0 RAPIDEYE 4
1 33316U 08040E   13290.85010932  .00000622  00000-0  89175-4 0  6576
2 33316 097.8937 016.7668 0010318 272.1497 087.8539 14.79949001277370
0 RAPIDEYE 4
1 33316U 08040E   13291.18816474  .00000616  00000-0  88413-4 0  6586
2 33316 097.8940 017.0993 0010306 270.8739 089.1303 14.79949396277427
0 RAPIDEYE 4
1 33316U 08040E   13291.52621974  .00000617  00000-0  88553-4 0  6590
2 33316 097.8939 017.4316 0010307 269.6671 090.3359 14.79949854277479
0 RAPIDEYE 4
1 33316U 08040E   13291.79666388  .00000621  00000-0  89001-4 0  6603
2 33316 097.8942 017.6978 0010308 268.9143 091.0889 14.79950236277513
0 RAPIDEYE 4
1 33316U 08040E   13292.20232979  .00000664  00000-0  94645-4 0  6613
2 33316 097.8943 018.0968 0010357 267.2580 092.7482 14.79951211277576
0 RAPIDEYE 4
1 33316U 08040E   13292.47277290  .00000678  00000-0  96556-4 0  6626
2 33316 097.8943 018.3627 0010346 266.4217 093.5815 14.79951738277615
0 RAPIDEYE 4
1 33316U 08040E   13292.81082743  .00000679  00000-0  96706-4 0  6630
2 33316 097.8943 018.6950 0010353 265.2414 094.7612 14.79952242277665
0 RAPIDEYE 4
1 33316U 08040E   13293.14888191  .00000693  00000-0  98580-4 0  6647
2 33316 097.8942 019.0274 0010341 264.1074 095.8964 14.79952911277716
0 RAPIDEYE 4
1 33316U 08040E   13293.48693587  .00000709  00000-0  10063-3 0  6655
2 33316 097.8940 019.3597 0010374 262.8339 097.1695 14.79953607277764
0 RAPIDEYE 4
1 33316U 08040E   13293.82499016  .00000713  00000-0  10112-3 0  6665
2 33316 097.8940 019.6921 0010348 261.6168 098.3866 14.79954123277819
0 RAPIDEYE 4
1 33316U 08040E   13294.16304439  .00000713  00000-0  10121-3 0  6678
2 33316 097.8940 020.0242 0010363 260.0090 099.9960 14.79954660277868
0 RAPIDEYE 4
1 33316U 08040E   13294.50109820  .00000715  00000-0  10140-3 0  6687
2 33316 097.8940 020.3564 0010366 258.7485 101.2563 14.79955219277916
0 RAPIDEYE 4
1 33316U 08040E   13294.83915212  .00000722  00000-0  10237-3 0  6699
2 33316 097.8940 020.6886 0010364 257.6967 102.3085 14.79955800277969
0 RAPIDEYE 4
1 33316U 08040E   13295.17720619  .00000708  00000-0  10050-3 0  6701
2 33316 097.8940 021.0210 0010376 256.2346 103.7716 14.79956167278014
0 RAPIDEYE 4
1 33316U 08040E   13295.51525988  .00000702  00000-0  99673-4 0  6715
2 33316 097.8940 021.3531 0010375 255.0772 104.9290 14.79956634278066
0 RAPIDEYE 4
1 33316U 08040E   13295.78570275  .00000694  00000-0  98698-4 0  6720
2 33316 097.8942 021.6192 0010362 253.9733 106.0323 14.79956934278102
0 RAPIDEYE 4
1 33316U 08040E   13296.19136761  .00000701  00000-0  99568-4 0  6731
2 33316 097.8942 022.0183 0010402 252.2881 107.7221 14.79957597278165
